STARLINK-31685          
1 59578U 24076Q   24193.49493395  .00004780  00000+0  12158-3 0  9996
2 59578  42.9985 221.8437 0001069 266.7854  93.2880 15.40707944 13458
STARLINK-31686          
1 59579U 24076R   24193.55752972  .00000768  00000+0  25648-4 0  9994
2 59579  42.9985 221.4524 0001323 273.7626  86.3079 15.40691145 13469
STARLINK-31668          
1 59580U 24076S   24193.44579116  .00000542  00000+0  20233-4 0  9996
2 59580  42.9981 222.3368 0001302 278.1991  81.8718 15.40695266 13440
STARLINK-31690          
1 59581U 24076T   24193.54597303  .00001979  00000+0  54623-4 0  9991
2 59581  42.9982 221.3631 0000963 286.8627  73.2123 15.40700493 13475
STARLINK-31701          
1 59582U 24076U   24193.53924658  .00000778  00000+0  25876-4 0  9992
2 59582  42.9996 221.3109 0001265 274.7181  85.3531 15.40695612 13370
STARLINK-31697          
1 59583U 24076V   24193.41182949  .00001703  00000+0  48032-4 0  9997
2 59583  42.9980 222.0763 0001428 280.2389  79.8306 15.40696488 13359
STARLINK-31662          
1 59584U 24076W   24193.46993775  .00000651  00000+0  22848-4 0  9998
2 59584  43.0000 221.6494 0001317 261.1661  98.9046 15.40696444 13455
STARLINK-31702          
1 59585U 24076X   24193.42078999  .00003792  00000+0  97977-4 0  9991
2 59585  42.9976 222.1452 0001459 274.4503  85.6187 15.40703600 13446
STARLINK-31704          
1 59586U 24076Y   24192.51518825  .00904524  43212-3  12081-2 0  9998
2 59586  42.9945 207.8702 0011010  86.8338 273.3801 16.05683739 13470
NEONSAT-1               
1 59587U 24077A   24193.53271263  .00009272  00000+0  46043-3 0  9991
2 59587  97.4119 272.5801 0014076  14.0118 346.1504 15.17809958 11913
ACS3                    
1 59588U 24077B   24193.16958010  .00000053  00000+0  96528-4 0  9995
2 59588  97.4052 255.7789 0020788  32.7670 327.4766 13.67690764 10686
SHENZHOU-18 (SZ-18)     
1 59591U 24078A   24193.31958869  .00029056  00000+0  30305-3 0  9993
2 59591  41.4694 295.7925 0003875  14.7174 345.3778 15.63863080 11701
1998-067WP              
1 59596U 98067WP  24193.26658612  .00138082  00000+0  11387-2 0  9992
2 59596  51.6309 190.1906 0009819  30.5663 329.5904 15.69338914 13135
1998-067WQ              
1 59597U 98067WQ  24193.32519821  .00138899  00000+0  11341-2 0  9994
2 59597  51.6347 189.8472 0010001  31.2240 328.9350 15.69574147 13111
STARLINK-31770          
1 59601U 24080A   24193.53815925  .00002104  00000+0  57616-4 0  9997
2 59601  43.0017 255.4086 0001639 269.1065  90.9604 15.40696482 12642
STARLINK-31778          
1 59602U 24080B   24193.55608376  .00000952  00000+0  30040-4 0  9991
2 59602  43.0011 255.5466 0001276 284.3407  75.7308 15.40697443 11432
STARLINK-31776          
1 59603U 24080C   24193.52247799  .00005164  00000+0  13079-3 0  9999
2 59603  43.0000 255.2828 0001399 286.0450  74.0253 15.40701608 11433
STARLINK-31765          
1 59604U 24080D   24193.56500545 -.00036367  00000+0 -86613-3 0  9990
2 59604  42.9990 255.6072 0001803 234.2302 125.8387 15.40745167 11437
STARLINK-31767          
1 59605U 24080E   24193.54936098 -.00003635  00000+0 -79818-4 0  9997
2 59605  42.9997 255.4910 0001510 276.0989  83.9696 15.40695111 11434
STARLINK-31782          
1 59606U 24080F   24193.59627527 -.00000790  00000+0 -11642-4 0  9997
2 59606  43.0026 254.9773 0001793 257.6234 102.4422 15.40686096 11449
STARLINK-31755          
1 59607U 24080G   24193.57834358  .00003901  00000+0  10061-3 0  9996
2 59607  42.9997 254.8399 0000804 227.5115 132.5674 15.40693029 11441
STARLINK-31585          
1 59608U 24080H   24193.54263774  .00001563  00000+0  44673-4 0  9991
2 59608  43.0012 255.4390 0001535 257.8159 102.2525 15.40698552 11441
STARLINK-31667          
1 59609U 24080J   24193.39730227  .00001425  00000+0  41388-4 0  9994
2 59609  43.0013 256.0620 0001636 266.2874  93.7795 15.40695161 11419
STARLINK-31729          
1 59610U 24080K   24193.56055799  .00002751  00000+0  73087-4 0  9993
2 59610  43.0003 255.5730 0000740 240.2141 119.8642 15.40700772 11438
STARLINK-31448          
1 59611U 24080L   24193.50469609  .00002717  00000+0  72293-4 0  9997
2 59611  42.9994 256.0173 0001536 261.4643  98.6039 15.40696589 11422
STARLINK-31748          
1 59612U 24080M   24193.49349562  .00000156  00000+0  10998-4 0  9990
2 59612  43.0009 255.9314 0001569 241.7819 118.2879 15.40694548 12592
STARLINK-31746          
1 59613U 24080N   24193.50679787  .00002465  00000+0  66259-4 0  9994
2 59613  43.0009 255.1362 0001396 264.2840  95.7857 15.40692331 11435
STARLINK-31762          
1 59614U 24080P   24193.48677645  .00003437  00000+0  89545-4 0  9996
2 59614  43.0015 255.8800 0001220 259.8408 100.2311 15.40687294 11421
STARLINK-31761          
1 59615U 24080Q   24193.54487820  .00001361  00000+0  39846-4 0  9991
2 59615  43.0006 255.4563 0001403 274.6705  85.3992 15.40699829 11438
STARLINK-31768          
1 59616U 24080R   24193.35935595  .00002282  00000+0  61873-4 0  9996
2 59616  43.0004 256.6425 0001476 264.9126  95.1562 15.40698442 11405
