OBJECT_NAME,OBJECT_ID,EPOCH,MEAN_MOTION,ECCENTRICITY,INCLINATION,RA_OF_ASC_NODE,ARG_OF_PERICENTER,MEAN_ANOMALY,EPHEMERIS_TYPE,CLASSIFICATION_TYPE,NORAD_CAT_ID,ELEMENT_SET_NO,REV_AT_EPOCH,BSTAR,MEAN_MOTION_DOT,MEAN_MOTION_DDOT
STARLINK-31685,2024-076Q,2024-07-11T11:52:42.293280,15.40707944,.0001069,42.9985,221.8437,266.7854,93.2880,0,U,59578,999,1345,.12158E-3,.478E-4,0
STARLINK-31686,2024-076R,2024-07-11T13:22:50.567808,15.40691145,.0001323,42.9985,221.4524,273.7626,86.3079,0,U,59579,999,1346,.25648E-4,.768E-5,0
STARLINK-31668,2024-076S,2024-07-11T10:41:56.356224,15.40695266,.0001302,42.9981,222.3368,278.1991,81.8718,0,U,59580,999,1344,.20233E-4,.542E-5,0
STARLINK-31690,2024-076T,2024-07-11T13:06:12.069792,15.40700493,.0000963,42.9982,221.3631,286.8627,73.2123,0,U,59581,999,1347,.54623E-4,.1979E-4,0
STARLINK-31701,2024-076U,2024-07-11T12:56:30.904512,15.40695612,.0001265,42.9996,221.3109,274.7181,85.3531,0,U,59582,999,1337,.25876E-4,.778E-5,0
STARLINK-31697,2024-076V,2024-07-11T09:53:02.067936,15.40696488,.0001428,42.9980,222.0763,280.2389,79.8306,0,U,59583,999,1335,.48032E-4,.1703E-4,0
STARLINK-31662,2024-076W,2024-07-11T11:16:42.621600,15.40696444,.0001317,43.0000,221.6494,261.1661,98.9046,0,U,59584,999,1345,.22848E-4,.651E-5,0
STARLINK-31702,2024-076X,2024-07-11T10:05:56.255136,15.40703600,.0001459,42.9976,222.1452,274.4503,85.6187,0,U,59585,999,1344,.97977E-4,.3792E-4,0
STARLINK-31704,2024-076Y,2024-07-10T12:21:52.264800,16.05683739,.001101,42.9945,207.8702,86.8338,273.3801,0,U,59586,999,1347,.12081E-2,.904524E-2,.43212E-3
NEONSAT-1,2024-077A,2024-07-11T12:47:06.371232,15.17809958,.0014076,97.4119,272.5801,14.0118,346.1504,0,U,59587,999,1191,.46043E-3,.9272E-4,0
ACS3,2024-077B,2024-07-11T04:04:11.720640,13.67690764,.0020788,97.4052,255.7789,32.7670,327.4766,0,U,59588,999,1068,.96528E-4,.53E-6,0
SHENZHOU-18 (SZ-18),2024-078A,2024-07-11T07:40:12.462816,15.63863080,.0003875,41.4694,295.7925,14.7174,345.3778,0,U,59591,999,1170,.30305E-3,.29056E-3,0
1998-067WP,1998-067WP,2024-07-11T06:23:53.040768,15.69338914,.0009819,51.6309,190.1906,30.5663,329.5904,0,U,59596,999,1313,.11387E-2,.138082E-2,0
1998-067WQ,1998-067WQ,2024-07-11T07:48:17.125344,15.69574147,.0010001,51.6347,189.8472,31.2240,328.9350,0,U,59597,999,1311,.11341E-2,.138899E-2,0
STARLINK-31770,2024-080A,2024-07-11T12:54:56.959200,15.40696482,.0001639,43.0017,255.4086,269.1065,90.9604,0,U,59601,999,1264,.57616E-4,.2104E-4,0
STARLINK-31778,2024-080B,2024-07-11T13:20:45.636864,15.40697443,.0001276,43.0011,255.5466,284.3407,75.7308,0,U,59602,999,1143,.3004E-4,.952E-5,0
STARLINK-31776,2024-080C,2024-07-11T12:32:22.098336,15.40701608,.0001399,43.0000,255.2828,286.0450,74.0253,0,U,59603,999,1143,.13079E-3,.5164E-4,0
STARLINK-31765,2024-080D,2024-07-11T13:33:36.470880,15.40745167,.0001803,42.9990,255.6072,234.2302,125.8387,0,U,59604,999,1143,-.86613E-3,-.36367E-3,0
STARLINK-31767,2024-080E,2024-07-11T13:11:04.788672,15.40695111,.000151,42.9997,255.4910,276.0989,83.9696,0,U,59605,999,1143,-.79818E-4,-.3635E-4,0
STARLINK-31782,2024-080F,2024-07-11T14:18:38.183328,15.40686096,.0001793,43.0026,254.9773,257.6234,102.4422,0,U,59606,999,1144,-.11642E-4,-.79E-5,0
STARLINK-31755,2024-080G,2024-07-11T13:52:48.885312,15.40693029,.0000804,42.9997,254.8399,227.5115,132.5674,0,U,59607,999,1144,.10061E-3,.3901E-4,0
STARLINK-31585,2024-080H,2024-07-11T13:01:23.900736,15.40698552,.0001535,43.0012,255.4390,257.8159,102.2525,0,U,59608,999,1144,.44673E-4,.1563E-4,0
STARLINK-31667,2024-080J,2024-07-11T09:32:06.916128,15.40695161,.0001636,43.0013,256.0620,266.2874,93.7795,0,U,59609,999,1141,.41388E-4,.1425E-4,0
STARLINK-31729,2024-080K,2024-07-11T13:27:12.210336,15.40700772,.000074,43.0003,255.5730,240.2141,119.8642,0,U,59610,999,1143,.73087E-4,.2751E-4,0
STARLINK-31448,2024-080L,2024-07-11T12:06:45.742176,15.40696589,.0001536,42.9994,256.0173,261.4643,98.6039,0,U,59611,999,1142,.72293E-4,.2717E-4,0
STARLINK-31748,2024-080M,2024-07-11T11:50:38.021568,15.40694548,.0001569,43.0009,255.9314,241.7819,118.2879,0,U,59612,999,1259,.10998E-4,.156E-5,0
STARLINK-31746,2024-080N,2024-07-11T12:09:47.335968,15.40692331,.0001396,43.0009,255.1362,264.2840,95.7857,0,U,59613,999,1143,.66259E-4,.2465E-4,0
STARLINK-31762,2024-080P,2024-07-11T11:40:57.485280,15.40687294,.000122,43.0015,255.8800,259.8408,100.2311,0,U,59614,999,1142,.89545E-4,.3437E-4,0
STARLINK-31761,2024-080Q,2024-07-11T13:04:37.476480,15.40699829,.0001403,43.0006,255.4563,274.6705,85.3992,0,U,59615,999,1143,.39846E-4,.1361E-4,0
STARLINK-31768,2024-080R,2024-07-11T08:37:28.354080,15.40698442,.0001476,43.0004,256.6425,264.9126,95.1562,0,U,59616,999,1140,.61873E-4,.2282E-4,0
